{
 "generated_at": "2026-06-28T08:21:54Z",
 "sources": [
  {
   "name": "CelesTrak",
   "url": "https://celestrak.org/NORAD/elements/",
   "license": "frei verfügbar; Attribution. Ursprünglich USSPACECOM/Space-Track."
  },
  {
   "name": "GCAT (J. McDowell, planet4589.org)",
   "url": "https://planet4589.org/space/gcat/",
   "license": "CC-BY 4.0"
  }
 ],
 "satellites": [
  {
   "norad": 40267,
   "name": "HIMAWARI-8",
   "intl": "2014-060A",
   "group": "weather",
   "gcat": {
    "class": "C",
    "category": "MET",
    "owner": "JMA",
    "state": "J"
   },
   "omm": {
    "OBJECT_NAME": "HIMAWARI-8",
    "OBJECT_ID": "2014-060A",
    "EPOCH": "2026-06-27T21:43:45.621696",
    "MEAN_MOTION": 1.00273864,
    "ECCENTRICITY": 0.00011152,
    "INCLINATION": 0.0143,
    "RA_OF_ASC_NODE": 336.6087,
    "ARG_OF_PERICENTER": 116.7412,
    "MEAN_ANOMALY": 289.2575,
    "EPHEMERIS_TYPE": 0,
    "CLASSIFICATION_TYPE": "U",
    "NORAD_CAT_ID": 40267,
    "ELEMENT_SET_NO": 999,
    "REV_AT_EPOCH": 4286,
    "BSTAR": 0,
    "MEAN_MOTION_DOT": -0.00000263,
    "MEAN_MOTION_DDOT": 0
   }
  },
  {
   "norad": 41836,
   "name": "HIMAWARI-9",
   "intl": "2016-064A",
   "group": "weather",
   "gcat": {
    "class": "C",
    "category": "MET",
    "owner": "JMA",
    "state": "J"
   },
   "omm": {
    "OBJECT_NAME": "HIMAWARI-9",
    "OBJECT_ID": "2016-064A",
    "EPOCH": "2026-06-27T21:43:45.621696",
    "MEAN_MOTION": 1.00270693,
    "ECCENTRICITY": 0.00011896,
    "INCLINATION": 0.016,
    "RA_OF_ASC_NODE": 53.4531,
    "ARG_OF_PERICENTER": 61.8863,
    "MEAN_ANOMALY": 267.366,
    "EPHEMERIS_TYPE": 0,
    "CLASSIFICATION_TYPE": "U",
    "NORAD_CAT_ID": 41836,
    "ELEMENT_SET_NO": 999,
    "REV_AT_EPOCH": 3531,
    "BSTAR": 0,
    "MEAN_MOTION_DOT": -0.00000263,
    "MEAN_MOTION_DDOT": 0
   }
  },
  {
   "norad": 40015,
   "name": "HODOYOSHI-3",
   "intl": "2014-033F",
   "group": "resource",
   "gcat": {
    "class": null,
    "category": null,
    "owner": null,
    "state": null
   },
   "omm": {
    "OBJECT_NAME": "HODOYOSHI-3",
    "OBJECT_ID": "2014-033F",
    "EPOCH": "2026-06-27T21:29:55.051584",
    "MEAN_MOTION": 14.85409015,
    "ECCENTRICITY": 0.00318216,
    "INCLINATION": 97.6426,
    "RA_OF_ASC_NODE": 341.5058,
    "ARG_OF_PERICENTER": 321.3659,
    "MEAN_ANOMALY": 38.528,
    "EPHEMERIS_TYPE": 0,
    "CLASSIFICATION_TYPE": "U",
    "NORAD_CAT_ID": 40015,
    "ELEMENT_SET_NO": 999,
    "REV_AT_EPOCH": 64921,
    "BSTAR": 0.00012575435,
    "MEAN_MOTION_DOT": 0.00001039,
    "MEAN_MOTION_DDOT": 0
   }
  },
  {
   "norad": 40011,
   "name": "HODOYOSHI-4",
   "intl": "2014-033B",
   "group": "resource",
   "gcat": {
    "class": null,
    "category": null,
    "owner": null,
    "state": null
   },
   "omm": {
    "OBJECT_NAME": "HODOYOSHI-4",
    "OBJECT_ID": "2014-033B",
    "EPOCH": "2026-06-27T22:14:43.333152",
    "MEAN_MOTION": 14.88151466,
    "ECCENTRICITY": 0.00220347,
    "INCLINATION": 97.545,
    "RA_OF_ASC_NODE": 3.2311,
    "ARG_OF_PERICENTER": 270.4674,
    "MEAN_ANOMALY": 89.4018,
    "EPHEMERIS_TYPE": 0,
    "CLASSIFICATION_TYPE": "U",
    "NORAD_CAT_ID": 40011,
    "ELEMENT_SET_NO": 999,
    "REV_AT_EPOCH": 65040,
    "BSTAR": 0.00018706172,
    "MEAN_MOTION_DOT": 0.00001678,
    "MEAN_MOTION_DDOT": 0
   }
  },
  {
   "norad": 33320,
   "name": "HUANJING 1A (HJ-1A)",
   "intl": "2008-041A",
   "group": "resource",
   "gcat": {
    "class": null,
    "category": null,
    "owner": null,
    "state": null
   },
   "omm": {
    "OBJECT_NAME": "HUANJING 1A (HJ-1A)",
    "OBJECT_ID": "2008-041A",
    "EPOCH": "2026-06-27T22:54:42.612768",
    "MEAN_MOTION": 14.84009074,
    "ECCENTRICITY": 0.00205649,
    "INCLINATION": 97.6681,
    "RA_OF_ASC_NODE": 164.3764,
    "ARG_OF_PERICENTER": 101.6856,
    "MEAN_ANOMALY": 258.6668,
    "EPHEMERIS_TYPE": 0,
    "CLASSIFICATION_TYPE": "U",
    "NORAD_CAT_ID": 33320,
    "ELEMENT_SET_NO": 999,
    "REV_AT_EPOCH": 96000,
    "BSTAR": 0.000093478178,
    "MEAN_MOTION_DOT": 0.0000073,
    "MEAN_MOTION_DDOT": 0
   }
  },
  {
   "norad": 33321,
   "name": "HUANJING 1B (HJ-1B)",
   "intl": "2008-041B",
   "group": "resource",
   "gcat": {
    "class": null,
    "category": null,
    "owner": null,
    "state": null
   },
   "omm": {
    "OBJECT_NAME": "HUANJING 1B (HJ-1B)",
    "OBJECT_ID": "2008-041B",
    "EPOCH": "2026-06-27T22:17:14.987616",
    "MEAN_MOTION": 14.83335436,
    "ECCENTRICITY": 0.00370734,
    "INCLINATION": 97.6517,
    "RA_OF_ASC_NODE": 167.4905,
    "ARG_OF_PERICENTER": 145.9381,
    "MEAN_ANOMALY": 214.4224,
    "EPHEMERIS_TYPE": 0,
    "CLASSIFICATION_TYPE": "U",
    "NORAD_CAT_ID": 33321,
    "ELEMENT_SET_NO": 999,
    "REV_AT_EPOCH": 96000,
    "BSTAR": 0.00015643459,
    "MEAN_MOTION_DOT": 0.00001245,
    "MEAN_MOTION_DDOT": 0
   }
  },
  {
   "norad": 43719,
   "name": "HYSIS",
   "intl": "2018-096A",
   "group": "resource",
   "gcat": {
    "class": "C",
    "category": "IMG",
    "owner": "ISRO",
    "state": "IN"
   },
   "omm": {
    "OBJECT_NAME": "HYSIS",
    "OBJECT_ID": "2018-096A",
    "EPOCH": "2026-06-27T23:18:31.407840",
    "MEAN_MOTION": 14.78637728,
    "ECCENTRICITY": 0.00018617,
    "INCLINATION": 97.9841,
    "RA_OF_ASC_NODE": 245.6347,
    "ARG_OF_PERICENTER": 92.1678,
    "MEAN_ANOMALY": 267.9746,
    "EPHEMERIS_TYPE": 0,
    "CLASSIFICATION_TYPE": "U",
    "NORAD_CAT_ID": 43719,
    "ELEMENT_SET_NO": 999,
    "REV_AT_EPOCH": 40901,
    "BSTAR": 0.00014042564,
    "MEAN_MOTION_DOT": 0.00000977,
    "MEAN_MOTION_DDOT": 0
   }
  },
  {
   "norad": 43613,
   "name": "ICESAT-2",
   "intl": "2018-070A",
   "group": "resource",
   "gcat": {
    "class": "C",
    "category": "SCI",
    "owner": "GSFC",
    "state": "US"
   },
   "omm": {
    "OBJECT_NAME": "ICESAT-2",
    "OBJECT_ID": "2018-070A",
    "EPOCH": "2026-06-27T21:26:35.565216",
    "MEAN_MOTION": 15.28212813,
    "ECCENTRICITY": 0.0006238,
    "INCLINATION": 92.0086,
    "RA_OF_ASC_NODE": 293.8713,
    "ARG_OF_PERICENTER": 95.0842,
    "MEAN_ANOMALY": 265.112,
    "EPHEMERIS_TYPE": 0,
    "CLASSIFICATION_TYPE": "U",
    "NORAD_CAT_ID": 43613,
    "ELEMENT_SET_NO": 999,
    "REV_AT_EPOCH": 43409,
    "BSTAR": 0.00032867462,
    "MEAN_MOTION_DOT": 0.00009038,
    "MEAN_MOTION_DDOT": 0
   }
  },
  {
   "norad": 48918,
   "name": "ICEYE-X11",
   "intl": "2021-059AR",
   "group": "sar",
   "gcat": {
    "class": "B",
    "category": "IMG-R",
    "owner": "ICEYE",
    "state": "FI"
   },
   "omm": {
    "OBJECT_NAME": "ICEYE-X11",
    "OBJECT_ID": "2021-059AR",
    "EPOCH": "2026-06-27T21:34:44.033664",
    "MEAN_MOTION": 16.18273954,
    "ECCENTRICITY": 0.00067554,
    "INCLINATION": 97.6183,
    "RA_OF_ASC_NODE": 19.9581,
    "ARG_OF_PERICENTER": 260.0214,
    "MEAN_ANOMALY": 100.0311,
    "EPHEMERIS_TYPE": 0,
    "CLASSIFICATION_TYPE": "U",
    "NORAD_CAT_ID": 48918,
    "ELEMENT_SET_NO": 999,
    "REV_AT_EPOCH": 27971,
    "BSTAR": 0.0013227203,
    "MEAN_MOTION_DOT": 0.02188408,
    "MEAN_MOTION_DDOT": 0.000002555249
   }
  },
  {
   "norad": 43800,
   "name": "ICEYE-X2",
   "intl": "2018-099AU",
   "group": "sar",
   "gcat": {
    "class": "B",
    "category": "IMG-R",
    "owner": "ICEYE",
    "state": "FI"
   },
   "omm": {
    "OBJECT_NAME": "ICEYE-X2",
    "OBJECT_ID": "2018-099AU",
    "EPOCH": "2026-06-27T22:53:26.490048",
    "MEAN_MOTION": 15.17846159,
    "ECCENTRICITY": 0.0008487,
    "INCLINATION": 97.4361,
    "RA_OF_ASC_NODE": 232.6055,
    "ARG_OF_PERICENTER": 262.3726,
    "MEAN_ANOMALY": 97.6544,
    "EPHEMERIS_TYPE": 0,
    "CLASSIFICATION_TYPE": "U",
    "NORAD_CAT_ID": 43800,
    "ELEMENT_SET_NO": 999,
    "REV_AT_EPOCH": 41445,
    "BSTAR": 0.00029461954,
    "MEAN_MOTION_DOT": 0.00005902,
    "MEAN_MOTION_DDOT": 0
   }
  }
 ]
}
